NORAD_CAT_ID,OBJECT_NAME,OBJECT_TYPE,EPOCH,MEAN_MOTION,ECCENTRICITY,INCLINATION,RA_OF_ASC_NODE,ARG_OF_PERICENTER,MEAN_ANOMALY,BSTAR,MEAN_MOTION_DOT,MEAN_MOTION_DDOT,TLE_LINE0,TLE_LINE1,TLE_LINE2,SEMIMAJOR_AXIS,PERIOD,APOGEE,PERIGEE,DECAYED
52269.0,STARLINK-3791,PAYLOAD,2022-08-27 14:00:01,15.08841241,0.0001906999999999,53.2178,140.6258,62.1924,197.2128,0.00041394,6.306e-05,0.0,0 STARLINK-3791,1 52269U 22041J   22239.58334491  .00006306  00000-0  41394-3 0  9997,2 52269  53.2178 140.6258 0001907  62.1924 197.2128 15.08841241  1307,6917.877,95.437,541.061,538.422,0.0
52269.0,STARLINK-3791,PAYLOAD,2022-08-27 22:00:00,15.08841708,0.0001971,53.2178,139.1306,59.5906,211.419,-0.0013130999999999,-0.00021127,0.0,0 STARLINK-3791,1 52269U 22041J   22239.91667824 -.00021127  00000-0 -13131-2 0  9990,2 52269  53.2178 139.1306 0001971  59.5906 211.4190 15.08841708 20874,6917.875,95.437,541.104,538.377,0.0
52269.0,STARLINK-3791,PAYLOAD,2022-08-28 14:00:01,15.08832134,0.000185,53.2179,136.1368,62.3532,231.8513,0.00077491,0.00012064,0.0,0 STARLINK-3791,1 52269U 22041J   22240.58334491  .00012064  00000-0  77491-3 0  9994,2 52269  53.2179 136.1368 0001850  62.3532 231.8513 15.08832134 20972,6917.904,95.438,541.049,538.49,0.0
52269.0,STARLINK-3791,PAYLOAD,2022-08-28 22:00:00,15.08839274,0.0001911,53.2179,134.6417,58.8742,246.9224,-0.001655,-0.00026531,0.0,0 STARLINK-3791,1 52269U 22041J   22240.91667824 -.00026531  00000-0 -16550-2 0  9994,2 52269  53.2179 134.6417 0001911  58.8742 246.9224 15.08839274  1305,6917.8830000000025,95.438,541.07,538.4259999999998,0.0
52269.0,STARLINK-3791,PAYLOAD,2022-08-29 06:00:02,15.08833566,0.0001932,53.2175,133.1456,55.5562,261.8829,4.7427e-06,-2.13e-06,0.0,0 STARLINK-3791,1 52269U 22041J   22241.25002315 -.00000213  00000-0  47427-5 0  9998,2 52269  53.2175 133.1456 0001932  55.5562 261.8829 15.08833566 21076,6917.9,95.438,541.102,538.429,0.0
52269.0,STARLINK-3791,PAYLOAD,2022-08-29 14:00:01,15.08808985,0.0001811999999999,53.2176,131.6478,63.5161,265.4536,0.0032251,0.0005137,0.0,0 STARLINK-3791,1 52269U 22041J   22241.58334491  .00051370  00000-0  32251-2 0  9992,2 52269  53.2176 131.6478 0001812  63.5161 265.4536 15.08808985  1301,6917.975,95.44,541.094,538.587,0.0
52269.0,STARLINK-3791,PAYLOAD,2022-08-29 22:00:00,15.08851444,0.0001924,53.2176,130.1528,60.3121,280.2396,-0.0012234,-0.00019712,0.0,0 STARLINK-3791,1 52269U 22041J   22241.91667824 -.00019712  00000-0 -12234-2 0  9993,2 52269  53.2176 130.1528 0001924  60.3121 280.2396 15.08851444  1303,6917.845,95.437,541.0409999999998,538.379,0.0
52269.0,STARLINK-3791,PAYLOAD,2022-08-30 14:00:01,15.08828533,0.0001743,53.2171,127.1586,65.1533,298.6106,0.00076506,0.00011905,0.0,0 STARLINK-3791,1 52269U 22041J   22242.58334491  .00011905  00000-0  76506-3 0  9995,2 52269  53.2171 127.1586 0001743  65.1533 298.6106 15.08828533  1302,6917.915,95.438,540.986,538.575,0.0
52269.0,STARLINK-3791,PAYLOAD,2022-08-30 22:00:00,15.08839861,0.0001834,53.217,125.6637,60.625,314.7265,-0.0011949,-0.00019255,0.0,0 STARLINK-3791,1 52269U 22041J   22242.91667824 -.00019255  00000-0 -11949-2 0  9998,2 52269  53.2170 125.6637 0001834  60.6250 314.7265 15.08839861  1300,6917.880999999999,95.438,541.015,538.477,0.0
52269.0,STARLINK-3791,PAYLOAD,2022-08-31 12:00:00,15.08824996,0.0001692,53.2166,123.0437,65.0781,240.5586,0.0010665,0.00016719,0.0,0 STARLINK-3791,1 52269U 22041J   22243.50001157  .00016719  00000-0  10665-2 0  9999,2 52269  53.2166 123.0437 0001692  65.0781 240.5586 15.08824996 21414,6917.926,95.439,540.962,538.621,0.0
52269.0,STARLINK-3791,PAYLOAD,2022-08-31 14:00:01,15.08829932,0.0001685,53.2165,122.6694,66.255,332.2775,0.00028989,4.327e-05,0.0,0 STARLINK-3791,1 52269U 22041J   22243.58334491  .00004327  00000-0  28989-3 0  9998,2 52269  53.2165 122.6694 0001685  66.2550 332.2775 15.08829932  1302,6917.911,95.438,540.942,538.61,0.0
52269.0,STARLINK-3791,PAYLOAD,2022-08-31 22:00:00,15.08829984,0.0001776,53.217,121.1743,59.7055,350.4085,-0.0024243,-0.00038654,0.0,0 STARLINK-3791,1 52269U 22041J   22243.91667824 -.00038654  00000-0 -24243-2 0  9994,2 52269  53.2170 121.1743 0001776  59.7055 350.4085 15.08829984  1308,6917.911,95.438,541.005,538.547,0.0
52269.0,STARLINK-3791,PAYLOAD,2022-09-01 06:00:00,15.08831649,0.0001754999999999,53.2161,119.6779,58.4803,3.199,-0.0012012,-0.0001935,0.0,0 STARLINK-3791,1 52269U 22041J   22244.25001157 -.00019350  00000-0 -12012-2 0  9996,2 52269  53.2161 119.6779 0001755  58.4803   3.1990 15.08831649 21538,6917.906,95.438,540.985,538.557,0.0
52269.0,STARLINK-3791,PAYLOAD,2022-09-01 14:00:01,15.08808542,0.0001686,53.2161,118.1801,66.7602,6.5684,0.0027256,0.0004331999999999,0.0,0 STARLINK-3791,1 52269U 22041J   22244.58335648  .00043320  00000-0  27256-2 0  9995,2 52269  53.2161 118.1801 0001686  66.7602   6.5684 15.08808542  1306,6917.977,95.44,541.008,538.675,0.0
52269.0,STARLINK-3791,PAYLOAD,2022-09-01 22:00:00,15.08837204,0.0001836,53.2161,116.6855,61.6219,23.2211,-0.00094968,-0.0001537,0.0,0 STARLINK-3791,1 52269U 22041J   22244.91667824 -.00015370  00000-0 -94968-3 0  9997,2 52269  53.2161 116.6855 0001836  61.6219  23.2211 15.08837204 21630,6917.889,95.438,541.024,538.484,0.0
52269.0,STARLINK-3791,PAYLOAD,2022-09-02 14:00:01,15.0882654,0.0001766999999999,53.2163,113.6909,67.2885,40.735,0.0022933,0.00036385,0.0,0 STARLINK-3791,1 52269U 22041J   22245.58334491  .00036385  00000-0  22933-2 0  9991,2 52269  53.2163 113.6909 0001767  67.2885  40.7350 15.08826540  1304,6917.922,95.438,541.009,538.564,0.0
52269.0,STARLINK-3791,PAYLOAD,2022-09-02 22:00:01,15.08848441,0.0001899,53.2164,112.1962,61.8143,57.868,-0.00064522,-0.00010545,0.0,0 STARLINK-3791,1 52269U 22041J   22245.91668981 -.00010545  00000-0 -64522-3 0  9995,2 52269  53.2164 112.1962 0001899  61.8143  57.8680 15.08848441  1300,6917.855,95.437,541.033,538.406,0.0
52269.0,STARLINK-3791,PAYLOAD,2022-09-03 06:00:00,15.08877027,0.0001828,53.2166,110.6994,60.0012,71.2142,-0.0042698,-0.00067673,0.0,0 STARLINK-3791,1 52269U 22041J   22246.25001157 -.00067673  00000-0 -42698-2 0  9992,2 52269  53.2166 110.6994 0001828  60.0012  71.2142 15.08877027 21833,6917.767,95.435,540.8969999999998,538.368,0.0
52269.0,STARLINK-3791,PAYLOAD,2022-09-03 14:00:01,15.08819862,0.0001730999999999,53.217,109.2017,66.2029,76.6278,0.0020544,0.00032541,0.0,0 STARLINK-3791,1 52269U 22041J   22246.58334491  .00032541  00000-0  20544-2 0  9998,2 52269  53.2170 109.2017 0001731  66.2029  76.6278 15.08819862  1309,6917.941999999999,95.439,541.004,538.609,0.0
52269.0,STARLINK-3791,PAYLOAD,2022-09-03 22:00:00,15.08839225,0.0001868,53.2171,107.7072,60.0809,94.3416,-4.3805e-05,-9.85e-06,0.0,0 STARLINK-3791,1 52269U 22041J   22246.91667824 -.00000985  00000-0 -43805-4 0  9990,2 52269  53.2171 107.7072 0001868  60.0809  94.3416 15.08839225 21930,6917.8830000000025,95.438,541.04,538.455,0.0
52269.0,STARLINK-3791,PAYLOAD,2022-09-04 14:00:01,15.08825136,0.0001658,53.2178,104.7128,64.8821,112.7933,0.0021282,0.00033731,0.0,0 STARLINK-3791,1 52269U 22041J   22247.58335648  .00033731  00000-0  21282-2 0  9996,2 52269  53.2178 104.7128 0001658  64.8821 112.7933 15.08825136  1303,6917.926,95.438,540.938,538.644,0.0
52269.0,STARLINK-3791,PAYLOAD,2022-09-04 20:00:01,15.08855999,0.0001738,53.2177,103.592,58.9821,37.32,-0.0019391999999999,-0.00031032,0.0,0 STARLINK-3791,1 52269U 22041J   22247.83334491 -.00031032  00000-0 -19392-2 0  9992,2 52269  53.2177 103.5920 0001738  58.9821  37.3200 15.08855999  1301,6917.831,95.437,540.899,538.494,0.0
52269.0,STARLINK-3791,PAYLOAD,2022-09-05 06:00:00,15.08847807,0.0001608,53.2179,101.7212,56.3343,144.4684,-0.0018558,-0.00029708,0.0,0 STARLINK-3791,1 52269U 22041J   22248.25001157 -.00029708  00000-0 -18558-2 0  9999,2 52269  53.2179 101.7212 0001608  56.3343 144.4684 15.08847807 22133,6917.857,95.437,540.8340000000002,538.609,0.0
52269.0,STARLINK-3791,PAYLOAD,2022-09-05 14:00:01,15.0883233,0.0001548,53.2182,100.224,63.813,148.5779,0.0020203,0.00032005,0.0,0 STARLINK-3791,1 52269U 22041J   22248.58334491  .00032005  00000-0  20203-2 0  9997,2 52269  53.2182 100.2240 0001548  63.8130 148.5779 15.08832330  1303,6917.904,95.438,540.84,538.698,0.0
52269.0,STARLINK-3791,PAYLOAD,2022-09-05 22:00:00,15.08847101,0.0001653,53.2182,98.7295,55.3218,168.6626,-0.0018439,-0.0002952,0.0,0 STARLINK-3791,1 52269U 22041J   22248.91667824 -.00029520  00000-0 -18439-2 0  9991,2 52269  53.2182  98.7295 0001653  55.3218 168.6626 15.08847101  1300,6917.859,95.437,540.867,538.58,0.0
52269.0,STARLINK-3791,PAYLOAD,2022-09-06 12:00:00,15.08811882,0.0001419999999999,53.2181,96.1092,61.7742,92.4886,0.0028113,0.00044703,0.0,0 STARLINK-3791,1 52269U 22041J   22249.50001157  .00044703  00000-0  28113-2 0  9996,2 52269  53.2181  96.1092 0001420  61.7742  92.4886 15.08811882 22325,6917.965999999999,95.439,540.814,538.849,0.0
52269.0,STARLINK-3791,PAYLOAD,2022-09-06 14:00:01,15.08830067,0.0001445,53.2182,95.7353,63.3211,183.8296,0.0014097,0.00022212,0.0,0 STARLINK-3791,1 52269U 22041J   22249.58334491  .00022212  00000-0  14097-2 0  9991,2 52269  53.2182  95.7353 0001445  63.3211 183.8296 15.08830067  1308,6917.911,95.438,540.775,538.776,0.0
52269.0,STARLINK-3791,PAYLOAD,2022-09-06 22:00:00,15.08825397,0.0001618,53.2181,94.2408,55.3665,203.3736,0.0010741,0.00016841,0.0,0 STARLINK-3791,1 52269U 22041J   22249.91667824  .00016841  00000-0  10741-2 0  9990,2 52269  53.2181  94.2408 0001618  55.3665 203.3736 15.08825397 22386,6917.925,95.438,540.909,538.6709999999998,0.0
52269.0,STARLINK-3791,PAYLOAD,2022-09-07 14:00:01,15.08823706,0.0001554,53.2178,91.2465,66.7203,215.1931,0.00088036,0.00013744,0.0,0 STARLINK-3791,1 52269U 22041J   22250.58334491  .00013744  00000-0  88036-3 0  9998,2 52269  53.2178  91.2465 0001554  66.7203 215.1931 15.08823706 22486,6917.93,95.439,540.87,538.72,0.0
